0 SL-8 R/B
1 20433U 90004B   13283.35867020  .00000109  00000-0  46498-4 0  5523
2 20433 074.0352 306.1118 0040706 041.7165 082.2406 14.35473980242044
0 SL-8 R/B
1 20433U 90004B   13285.66140841  .00000136  00000-0  55825-4 0  5540
2 20433 074.0349 301.8875 0040790 036.8657 102.1861 14.35474531242372
0 SL-8 R/B
1 20433U 90004B   13287.17710882  .00000110  00000-0  46908-4 0  5551
2 20433 074.0348 299.1068 0040854 033.6855 014.9146 14.35475381242594
0 SL-8 R/B
1 20433U 90004B   13288.52470459  .00000174  00000-0  69083-4 0  5564
2 20433 074.0349 296.6345 0040898 030.8645 138.9232 14.35476115242789
0 SL-8 R/B
1 20433U 90004B   13289.56402127  .00000173  00000-0  68494-4 0  5571
2 20433 074.0350 294.7277 0040964 028.6622 109.8591 14.35476544242936
0 SL-8 R/B
1 20433U 90004B   13291.14893041  .00000163  00000-0  65071-4 0  5585
2 20433 074.0352 291.8200 0041062 025.3435 020.2458 14.35477298243169
0 SL-8 R/B
1 20433U 90004B   13292.19959216  .00000194  00000-0  75712-4 0  5596
2 20433 074.0354 289.8925 0041113 023.1505 049.7810 14.35477549243317
0 SL-8 R/B
1 20433U 90004B   13293.46215284  .00000257  00000-0  97469-4 0  5602
2 20433 074.0354 287.5764 0041175 020.5150 094.3558 14.35477936243492
0 SL-8 R/B
1 20433U 90004B   13294.51295590  .00000267  00000-0  10086-3 0  5618
2 20433 074.0355 285.6487 0041193 018.3243 124.6215 14.35478649243648
0 SL-8 R/B
1 20433U 90004B   13296.17248933  .00000287  00000-0  10794-3 0  5620
2 20433 074.0356 282.6045 0041262 014.8800 060.6291 14.35480040243880
